OBJECT_NAME,OBJECT_ID,EPOCH,MEAN_MOTION,ECCENTRICITY,INCLINATION,RA_OF_ASC_NODE,ARG_OF_PERICENTER,MEAN_ANOMALY,EPHEMERIS_TYPE,CLASSIFICATION_TYPE,NORAD_CAT_ID,ELEMENT_SET_NO,REV_AT_EPOCH,BSTAR,MEAN_MOTION_DOT,MEAN_MOTION_DDOT
SL-16 R/B,1996-051B,2026-07-12T16:01:53.548032,14.12455481,.0017615,70.7648,270.7251,301.3580,58.5816,0,U,24298,999,53929,.10512E-3,.145E-5,0
ORBVIEW 2 (SEASTAR),1997-037A,2026-07-12T11:02:30.235488,14.35566011,.00031422,98.8710,1.1824,66.3262,293.8252,0,U,24883,999,52637,.55102477E-4,.112E-5,0
SL-16 R/B,1998-043G,2026-07-12T19:57:51.642144,14.26072492,.0010161,98.8378,148.2137,18.0514,342.1024,0,U,25400,999,45682,.1594E-4,-.7E-7,0
SL-16 R/B,1998-045B,2026-07-12T15:55:32.001312,14.16206165,.0008314,71.0114,278.7526,210.2084,149.8561,0,U,25407,999,44479,-.10452E-3,-.255E-5,0
ISS (ZARYA),1998-067A,2026-07-12T19:10:09.377760,15.48994114,.0006695,51.6301,173.3406,288.1916,71.8344,0,U,25544,999,57572,.95802E-4,.4831E-4,0
CZ-4B R/B,1999-025C,2026-07-12T18:10:02.182080,14.18287409,.0036769,98.6473,234.9503,346.8499,126.2499,0,U,25732,999,40589,.28614E-4,.16E-6,0
OKEAN-O,1999-039A,2026-07-12T18:14:36.780288,14.80495702,.0000928,97.9303,252.2628,82.8184,277.3133,0,U,25860,999,45289,.43799E-4,.283E-5,0
SL-16 R/B,1999-039B,2026-07-12T18:11:48.200064,14.81869383,.0014132,97.9824,252.5466,206.6300,153.4189,0,U,25861,999,45538,.38497E-4,.251E-5,0
DELTA 2 R/B,1999-041E,2026-07-12T07:16:00.649056,14.12076723,.05013176,51.7614,163.4543,356.2165,3.5037,0,U,25876,999,38063,.25224857E-3,.1331E-4,0
HELIOS 1B,1999-064A,2026-07-12T17:32:51.043776,14.88071495,.0002072,98.1588,99.6081,57.0152,303.1263,0,U,25977,999,70385,.78013E-4,.659E-5,0
TERRA,1999-068A,2026-07-12T20:00:12.645216,14.61122648,.0003317,97.9443,242.3611,127.4066,284.6397,0,U,25994,999,41335,.52367E-4,.213E-5,0
SL-16 R/B,2000-006B,2026-07-12T10:17:23.225856,14.15838664,.00170868,71.0002,195.5500,343.8109,16.2466,0,U,26070,999,36621,-.91725436E-4,-.229E-5,0
TITAN 4B R/B,2000-047B,2026-07-12T19:44:36.781152,15.10326555,.0045888,67.9872,48.4073,261.1022,98.4931,0,U,26474,999,41180,.8744E-4,.1329E-4,0
ENVISAT,2002-009A,2026-07-12T19:55:10.462080,14.39070436,.0001342,98.3846,144.5784,84.2090,305.3546,0,U,27386,999,27717,.19006E-4,.16E-6,0
IDEFIX & ARIANE 42P R/B,2002-021B,2026-07-12T18:56:16.664928,14.31093152,.0011734,98.5942,130.9953,173.4900,186.6438,0,U,27422,999,26191,.51657E-4,.92E-6,0
AQUA,2002-022A,2026-07-12T21:54:23.059296,14.62195196,.0000864,98.4294,163.7125,108.8614,267.3759,0,U,27424,999,28703,.87043E-4,.389E-5,0
CZ-4B R/B,2002-024C,2026-07-12T18:49:17.852160,14.14567941,.005059,98.8688,246.4364,28.7834,80.5041,0,U,27432,999,24692,.27046E-4,.8E-7,0
MIDORI II (ADEOS-II),2002-056A,2026-07-12T18:12:16.600608,14.29362418,.000158,98.7893,153.2378,42.7731,317.3573,0,U,27597,999,22816,.60833E-4,.11E-5,0
H-2A R/B,2002-056E,2026-07-12T19:57:52.062048,14.33833130,.0070761,98.3327,149.5735,147.9016,273.6079,0,U,27601,999,23204,.56013E-4,.119E-5,0
CZ-4B R/B,2003-049C,2026-07-12T12:52:11.339040,14.55114993,.00474705,98.6908,193.3931,209.4665,150.3854,0,U,28059,999,20475,.4289737E-4,.136E-5,0
CZ-2C R/B,2004-012C,2026-07-12T18:46:53.138208,15.84695578,.0011432,97.7065,272.5314,198.9120,161.1726,0,U,28222,999,22394,.52196E-3,.121868E-2,0
SL-16 R/B,2004-021B,2026-07-12T18:12:58.809600,14.14616104,.0006396,71.0026,330.0206,227.1108,132.9478,0,U,28353,999,14052,.54354E-4,.57E-6,0
CZ-4B R/B,2004-035C,2026-07-12T13:27:11.099232,15.30969035,.0029078,97.3361,226.3521,242.4975,117.3310,0,U,28415,999,19900,.14603E-3,.4346E-4,0
CZ-2C R/B,2004-046B,2026-07-12T17:08:19.874688,14.27032580,.0139977,98.1920,100.8967,144.6971,216.3579,0,U,28480,999,12633,.29708E-4,.4E-6,0
ARIANE 5 R/B,2004-049H,2026-07-12T10:58:32.921472,14.85477046,.00827551,98.2739,6.6900,307.2822,52.0867,0,U,28499,999,16431,.38649302E-4,.288E-5,0
CZ-2D R/B,2005-024B,2026-07-12T13:41:13.215840,15.72501753,.0001962,97.3474,214.3188,199.3263,160.7926,0,U,28738,999,15932,.33415E-3,.44541E-3,0
ALOS (DAICHI),2006-002A,2026-07-12T19:39:14.528160,14.70099053,.0000795,98.1336,149.3089,93.5626,266.5671,0,U,28931,999,9186,.87455E-4,.476E-5,0
H-2A R/B,2006-002B,2026-07-12T11:52:29.992512,15.18418920,.00506451,98.2582,351.6228,175.1484,185.0249,0,U,28932,999,11336,.22864524E-3,.478E-4,0
RESURS-DK 1,2006-021A,2026-07-12T14:47:42.950112,15.13313618,.0006968,69.9310,273.7227,274.0231,86.0139,0,U,29228,999,10642,.59778E-4,.958E-5,0
CZ-4B R/B,2006-046C,2026-07-12T16:47:02.779008,15.17969127,.0032319,97.5443,238.2279,190.8492,169.2049,0,U,29507,999,7900,.11381E-3,.2271E-4,0
CZ-2C R/B,2007-010B,2026-07-12T16:52:31.245024,14.20281411,.0057815,98.4117,300.8086,291.1636,68.3369,0,U,31114,999,99746,.27906E-4,.19E-6,0
