SL-16 R/B               
1 24298U 96051B   26193.66798088  .00000145  00000+0  10512-3 0  9990
2 24298  70.7648 270.7251 0017615 301.3580  58.5816 14.12455481539299
ORBVIEW 2 (SEASTAR)     
1 24883U 97037A   26193.46007217  .00000112  00000+0  55102-4 0  9999
2 24883  98.8710   1.1824 0003142  66.3262 293.8252 14.35566011526377
SL-16 R/B               
1 25400U 98043G   26193.83184771 -.00000007  00000+0  15940-4 0  9995
2 25400  98.8378 148.2137 0010161  18.0514 342.1024 14.26072492456828
SL-16 R/B               
1 25407U 98045B   26193.66356483 -.00000255  00000+0 -10452-3 0  9994
2 25407  71.0114 278.7526 0008314 210.2084 149.8561 14.16206165444798
ISS (ZARYA)             
1 25544U 98067A   26193.79871965  .00004831  00000+0  95802-4 0  9996
2 25544  51.6301 173.3406 0006695 288.1916  71.8344 15.48994114575722
CZ-4B R/B               
1 25732U 99025C   26193.75696970  .00000016  00000+0  28614-4 0  9995
2 25732  98.6473 234.9503 0036769 346.8499 126.2499 14.18287409405891
OKEAN-O                 
1 25860U 99039A   26193.76014792  .00000283  00000+0  43799-4 0  9996
2 25860  97.9303 252.2628 0000928  82.8184 277.3133 14.80495702452895
SL-16 R/B               
1 25861U 99039B   26193.75819676  .00000251  00000+0  38497-4 0  9994
2 25861  97.9824 252.5466 0014132 206.6300 153.4189 14.81869383455388
DELTA 2 R/B             
1 25876U 99041E   26193.30278529  .00001331  00000+0  25225-3 0  9994
2 25876  51.7614 163.4543 0501317 356.2165   3.5037 14.12076723380636
HELIOS 1B               
1 25977U 99064A   26193.73114634  .00000659  00000+0  78013-4 0  9990
2 25977  98.1588  99.6081 0002072  57.0152 303.1263 14.88071495703853
TERRA                   
1 25994U 99068A   26193.83347969  .00000213  00000+0  52367-4 0  9993
2 25994  97.9443 242.3611 0003317 127.4066 284.6397 14.61122648413356
SL-16 R/B               
1 26070U 00006B   26193.42874104 -.00000229  00000+0 -91725-4 0  9994
2 26070  71.0002 195.5500 0017086 343.8109  16.2466 14.15838664366211
TITAN 4B R/B            
1 26474U 00047B   26193.82264793  .00001329  00000+0  87440-4 0  9997
2 26474  67.9872  48.4073 0045888 261.1022  98.4931 15.10326555411808
ENVISAT                 
1 27386U 02009A   26193.82998220  .00000016  00000+0  19006-4 0  9994
2 27386  98.3846 144.5784 0001342  84.2090 305.3546 14.39070436277179
IDEFIX & ARIANE 42P R/B 
1 27422U 02021B   26193.78908177  .00000092  00000+0  51657-4 0  9998
2 27422  98.5942 130.9953 0011734 173.4900 186.6438 14.31093152261910
AQUA                    
1 27424U 02022A   26193.91276689  .00000389  00000+0  87043-4 0  9999
2 27424  98.4294 163.7125 0000864 108.8614 267.3759 14.62195196287031
CZ-4B R/B               
1 27432U 02024C   26193.78423440  .00000008  00000+0  27046-4 0  9999
2 27432  98.8688 246.4364 0050590  28.7834  80.5041 14.14567941246920
MIDORI II (ADEOS-II)    
1 27597U 02056A   26193.75852547  .00000110  00000+0  60833-4 0  9992
2 27597  98.7893 153.2378 0001580  42.7731 317.3573 14.29362418228161
H-2A R/B                
1 27601U 02056E   26193.83185257  .00000119  00000+0  56013-4 0  9998
2 27601  98.3327 149.5735 0070761 147.9016 273.6079 14.33833130232047
CZ-4B R/B               
1 28059U 03049C   26193.53624235  .00000136  00000+0  42897-4 0  9994
2 28059  98.6908 193.3931 0047470 209.4665 150.3854 14.55114993204755
CZ-2C R/B               
1 28222U 04012C   26193.78255947  .00121868  00000+0  52196-3 0  9992
2 28222  97.7065 272.5314 0011432 198.9120 161.1726 15.84695578223949
SL-16 R/B               
1 28353U 04021B   26193.75901400  .00000057  00000+0  54354-4 0  9991
2 28353  71.0026 330.0206 0006396 227.1108 132.9478 14.14616104140522
CZ-4B R/B               
1 28415U 04035C   26193.56054513  .00004346  00000+0  14603-3 0  9995
2 28415  97.3361 226.3521 0029078 242.4975 117.3310 15.30969035199007
CZ-2C R/B               
1 28480U 04046B   26193.71411892  .00000040  00000+0  29708-4 0  9993
2 28480  98.1920 100.8967 0139977 144.6971 216.3579 14.27032580126332
ARIANE 5 R/B            
1 28499U 04049H   26193.45732548  .00000288  00000+0  38649-4 0  9999
2 28499  98.2739   6.6900 0082755 307.2822  52.0867 14.85477046164313
CZ-2D R/B               
1 28738U 05024B   26193.57029185  .00044541  00000+0  33415-3 0  9993
2 28738  97.3474 214.3188 0001962 199.3263 160.7926 15.72501753159329
ALOS (DAICHI)           
1 28931U 06002A   26193.81891815  .00000476  00000+0  87455-4 0  9992
2 28931  98.1336 149.3089 0000795  93.5626 266.5671 14.70099053 91866
H-2A R/B                
1 28932U 06002B   26193.49479158  .00004780  00000+0  22865-3 0  9994
2 28932  98.2582 351.6228 0050645 175.1484 185.0249 15.18418920113369
RESURS-DK 1             
1 29228U 06021A   26193.61646933  .00000958  00000+0  59778-4 0  9992
2 29228  69.9310 273.7227 0006968 274.0231  86.0139 15.13313618106423
CZ-4B R/B               
1 29507U 06046C   26193.69933772  .00002271  00000+0  11381-3 0  9994
2 29507  97.5443 238.2279 0032319 190.8492 169.2049 15.17969127 79006
CZ-2C R/B               
1 31114U 07010B   26193.70313941  .00000019  00000+0  27906-4 0  9994
2 31114  98.4117 300.8086 0057815 291.1636  68.3369 14.20281411997465
